PROXIMA II              
1 43696U 18088G   22089.82157392  .00011219  00000+0  44583-3 0  9991
2 43696  85.0362   5.3773 0019840  50.3872 309.9118 15.24986143187972
FACSAT-1                
1 43721U 18096C   22089.81405866  .00017229  00000+0  54298-3 0  9991
2 43721  97.3566 169.8917 0014087 339.3782 154.1722 15.32865918185915
CENTAURI-2              
1 43722U 18096D   22089.47324291  .00024889  00000+0  72924-3 0  9992
2 43722  97.3599 171.1452 0013393 335.4997  24.5608 15.35112027185941
INNOSAT-2               
1 43738U 18096V   22089.81223410  .00037640  00000+0  89546-3 0  9995
2 43738  97.3689 177.4706 0015589 324.2841 129.9001 15.41415573186365
SIRION PATHFINDER-2     
1 43759U 18099B   22089.52425175  .00002894  00000+0  26252-3 0  9999
2 43759  97.6274 158.3473 0014782 160.7999 199.3782 14.95997947181248
CORVUS BC4              
1 43767U 18099K   22089.51362943  .00002598  00000+0  23995-3 0  9992
2 43767  97.6236 156.9578 0012093 165.6549 194.5018 14.95401416181175
MOVE-II                 
1 43780U 18099Y   22089.42778804  .00004604  00000+0  40502-3 0  9997
2 43780  97.6323 158.7769 0013469 170.2777 189.8708 14.96932925181237
SPACEBEE-7              
1 43816U 18099BL  22089.47988130  .00005483  00000+0  48077-3 0  9998
2 43816  97.6342 159.5413 0014126 153.2768 206.9184 14.96969937180832
SPACEBEE-5              
1 43817U 18099BM  22089.43505264  .00009671  00000+0  79201-3 0  9994
2 43817  97.6478 161.8799 0012569 151.0210 209.1714 14.99438001180923
SPACEBEE-6              
1 43818U 18099BN  22089.48272953  .00007312  00000+0  62760-3 0  9998
2 43818  97.6383 160.2635 0014072 151.7621 208.4367 14.97693194181016
SHIELDS 1               
1 43850U 18104B   22089.54132443  .00004497  00000+0  19010-3 0  9998
2 43850  85.0240 104.5599 0013993 186.0830 174.0245 15.22847130182495
STF-1                   
1 43852U 18104D   22089.50504952  .00010585  00000+0  42415-3 0  9994
2 43852  85.0272 105.0780 0012629 197.5372 162.5437 15.24817253182505
ZACUBE-2                
1 43907U 18111AH  22089.74788404  .00004825  00000+0  18677-3 0  9998
2 43907  97.2022 338.8659 0020540   4.4572  79.3580 15.26449086181289
LUME 1                  
1 43908U 18111AJ  22089.61293873  .00011572  00000+0  41596-3 0  9999
2 43908  97.2030 339.9459 0019170   1.1450 358.9831 15.28613564181343
AOBA VELOX-IV           
1 43940U 19003J   22089.54404739  .00027736  00000+0  87808-3 0  9998
2 43940  97.1398 127.9478 0021319  72.1089 288.2476 15.32491514178020
MOVE-IIB                
1 44398U 19038N   22089.89478125  .00013057  00000+0  66981-3 0  9992
2 44398  97.6169  58.6882 0024375  44.3210 315.9969 15.16409758151128
SONATE                  
1 44400U 19038Q   22089.62095731  .00005404  00000+0  30143-3 0  9993
2 44400  97.6288  57.8654 0025739  47.7545 312.5878 15.13714079151006
LUCKY-7                 
1 44406U 19038W   22089.79412293  .00010096  00000+0  54872-3 0  9991
2 44406  97.6305  58.4544 0024670  45.8714 314.4541 15.14429118151058
BEESAT 9                
1 44412U 19038AC  22089.45134260  .00011233  00000+0  59609-3 0  9993
2 44412  97.6278  58.2852 0022692  51.6044 308.7221 15.15290231150724
JAISAT-1                
1 44419U 19038F   22089.85798907  .00013322  00000+0  69679-3 0  9997
2 44419  97.6282  59.4685 0021528  48.2638 312.0431 15.15781787151140
DUCHIFAT-3              
1 44854U 19089C   22089.66568710  .00003816  00000+0  30383-3 0  9999
2 44854  36.9633 207.2031 0009078 303.4846  56.5068 15.00398751126091
EYESAT-NANO             
1 44877U 19092E   22089.46601980  .00012431  00000+0  57054-3 0  9990
2 44877  97.4634 274.4941 0011182 271.7501  88.2453 15.20503935126352
ORBITAL FACTORY 2 (OF-2)
1 45113U 19071C   22089.37226931  .00024594  00000+0  59255-3 0  9998
2 45113  51.6387  87.2614 0008389 251.1246 108.8829 15.41073303121167
M2 PATHFINDER           
1 45727U 20037E   22089.47798005  .00000975  00000+0  10223-3 0  9999
2 45727  97.7288 266.4150 0011970 302.6824  57.3249 14.91744503 95052
NETSAT-4                
1 46504U 20068U   22089.62627884  .00003179  00000+0  24146-3 0  9998
2 46504  97.7162  29.6325 0010816 224.9666 135.0687 15.02865890 82207
NETSAT-3                
1 46505U 20068V   22089.63959271  .00003910  00000+0  29621-3 0  9994
2 46505  97.7139  29.5770 0010472 238.6190 121.4012 15.02829721 82212
NETSAT-1                
1 46506U 20068W   22089.58684411  .00003265  00000+0  24860-3 0  9993
2 46506  97.7144  29.4700 0008401 254.9238 105.1066 15.02765740 82201
NETSAT-2                
1 46507U 20068X   22089.52814612  .00002109  00000+0  16243-3 0  9998
2 46507  97.7164  29.4105 0006849 262.8361  97.2098 15.02733432 82144
SPOC                    
1 46921U 98067RR  22089.29766226  .00095171  00000+0  74422-3 0  9997
2 46921  51.6368 339.2976 0003234 158.4459 201.6676 15.70840585 79478
BOBCAT-1                
1 46922U 98067RS  22088.90322695  .00616863  17333-3  13843-2 0  9990
2 46922  51.6318 326.8424 0007301 218.0532 141.9961 15.97096555 79559
NEUTRON-1               
1 46923U 98067RT  22089.52677318  .00096726  00000+0  75926-3 0  9995
2 46923  51.6375 338.5883 0003467 159.5251 200.5887 15.70741895 79529
DESCENT                 
1 46927U 98067RX  22088.93734498  .00110601  00000+0  84418-3 0  9991
2 46927  51.6368 341.3963 0004123 160.7965 199.3189 15.71349838 79355
SAI-1 NANOCONNECT-2     
1 47701U 21015C   22089.17476740 -.00000073  00000+0  00000+0 0  9994
2 47701  97.4113 166.5771 0015583   2.4776 357.8237 15.25181835 60120
WARP-01                 
1 47924U 98067SA  22089.07605503  .00244097  00000+0  13239-2 0  9998
2 47924  51.6319 345.2479 0005908 164.0204 196.0985 15.78760199 59360
RSP-01                  
1 47925U 98067SB  22088.94520007  .00123572  00000+0  10106-2 0  9993
2 47925  51.6388 350.4568 0002923 152.8541 207.2609 15.69647602 59267
TAUSAT-1                
1 47926U 98067SC  22089.42630691  .00201092  00000+0  10911-2 0  9997
2 47926  51.6330 342.3606 0004441 185.4640 174.6313 15.78884424 59407
TSURU                   
1 47927U 98067SD  22088.96727057  .00095379  00000+0  87289-3 0  9991
2 47927  51.6383 352.0979 0002449 142.4994 217.6174 15.67015791 59244
STARS-EC                
1 47928U 98067SE  22089.81634064  .00402065  00000+0  15324-2 0  9996
2 47928  51.6331 339.6916 0007093 185.0244 175.0690 15.85894650 59464
MAYA-2                  
1 47929U 98067SF  22089.53849807  .00090751  00000+0  83058-3 0  9994
2 47929  51.6380 349.1631 0002271 147.4515 212.6622 15.67036314 59294
HIROGARI (OPUSAT-II)    
1 47930U 98067SG  22089.41076372  .00398777  00000+0  14054-2 0  9990
2 47930  51.6297 339.9749 0006311 202.2094 157.8638 15.87512205 59445
GUARANISAT-1            
1 47931U 98067SH  22089.27390835  .00089204  00000+0  81301-3 0  9990
2 47931  51.6396 350.4113 0002344 145.5316 214.5832 15.67146856 59290
SMOG-1                  
1 47964U 21022AJ  22089.48657408  .00008835  00000+0  56419-3 0  9991
2 47964  97.5379 351.5072 0020389  50.2984 310.0038 15.08720104 54973
MMSATS-1                
1 47976U 98067SJ  22089.57891465  .00023059  00000+0  34280-3 0  9997
2 47976  51.6423 359.9026 0003368  90.6067 269.5328 15.55052450 57973
BCCSAT-1                
1 48041U 21022AK  22089.43122216  .00007032  00000+0  45930-3 0  9991
2 48041  97.5388 351.1633 0016964  49.5186 310.7518 15.08015592 54921
RAMSAT                  
1 48850U 98067SL  22089.16526566  .00051679  00000+0  63289-3 0  9991
2 48850  51.6410 359.4017 0005415 132.1735 227.9719 15.59832324 44917
BD-28                   
1 48867U 98067SN  22089.46563563  .00060854  00000+0  70586-3 0  9993
2 48867  51.6390 356.8927 0004764 154.3920 205.7311 15.61186127 43727
MIR-SAT 1               
1 48868U 98067SP  22089.44473492  .00354500  00000+0  15655-2 0  9992
2 48868  51.6317 347.6951 0007555 183.4636 176.6316 15.82919791 43871
1998-067SR              
1 49272U 98067SR  22089.46272191  .00057949  00000+0  74264-3 0  9996
2 49272  51.6407   1.3698 0003437  58.8410 301.2919 15.58593397 27301
1998-067SS              
1 49273U 98067SS  22089.05222996  .00084050  00000+0  97787-3 0  9998
2 49273  51.6402   2.3801 0002904  73.1931 286.9381 15.60978754 27253
1998-067ST              
1 49274U 98067ST  22089.82861887  .00085430  00000+0  99450-3 0  9994
2 49274  51.6395 358.5642 0002686  74.6392 285.4898 15.60957369 27377
CUAVA-1                 
1 49275U 98067SU  22089.80205439  .00072602  00000+0  87523-3 0  9993
2 49275  51.6421 358.9108 0004011  79.1626  25.0137 15.60109429 27317
